[{"OBJECT_NAME":"ONEWEB-0311","OBJECT_ID":"2021-075Y","EPOCH":"2025-07-31T02:43:33.555648","MEAN_MOTION":13.17648151,"ECCENTRICITY":0.0001521,"INCLINATION":87.9032,"RA_OF_ASC_NODE":69.7617,"ARG_OF_PERICENTER":94.8488,"MEAN_ANOMALY":265.2817,"EPHEMERIS_TYPE":0,"CLASSIFICATION_TYPE":"U","NORAD_CAT_ID":49097,"ELEMENT_SET_NO":999,"REV_AT_EPOCH":19234,"BSTAR":0.00016837,"MEAN_MOTION_DOT":7.8e-7,"MEAN_MOTION_DDOT":0},{"OBJECT_NAME":"ONEWEB-0312","OBJECT_ID":"2021-075Z","EPOCH":"2025-07-30T21:37:24.256416","MEAN_MOTION":13.1764876,"ECCENTRICITY":0.0001371,"INCLINATION":87.9033,"RA_OF_ASC_NODE":69.8356,"ARG_OF_PERICENTER":83.6732,"MEAN_ANOMALY":276.4556,"EPHEMERIS_TYPE":0,"CLASSIFICATION_TYPE":"U","NORAD_CAT_ID":49098,"ELEMENT_SET_NO":999,"REV_AT_EPOCH":19129,"BSTAR":-7.0636e-5,"MEAN_MOTION_DOT":-1.5e-7,"MEAN_MOTION_DDOT":0},{"OBJECT_NAME":"ONEWEB-0313","OBJECT_ID":"2021-075AA","EPOCH":"2025-07-30T21:44:28.578048","MEAN_MOTION":13.17650588,"ECCENTRICITY":0.0001762,"INCLINATION":87.9029,"RA_OF_ASC_NODE":69.8491,"ARG_OF_PERICENTER":87.4803,"MEAN_ANOMALY":272.653,"EPHEMERIS_TYPE":0,"CLASSIFICATION_TYPE":"U","NORAD_CAT_ID":49099,"ELEMENT_SET_NO":999,"REV_AT_EPOCH":19128,"BSTAR":-3.2625e-6,"MEAN_MOTION_DOT":1.2e-7,"MEAN_MOTION_DDOT":0},{"OBJECT_NAME":"ONEWEB-0314","OBJECT_ID":"2021-075AB","EPOCH":"2025-07-31T02:24:08.684064","MEAN_MOTION":13.17648779,"ECCENTRICITY":0.0001399,"INCLINATION":87.904,"RA_OF_ASC_NODE":69.7432,"ARG_OF_PERICENTER":85.9528,"MEAN_ANOMALY":274.1764,"EPHEMERIS_TYPE":0,"CLASSIFICATION_TYPE":"U","NORAD_CAT_ID":49100,"ELEMENT_SET_NO":999,"REV_AT_EPOCH":19227,"BSTAR":-0.00016083,"MEAN_MOTION_DOT":-5.0e-7,"MEAN_MOTION_DDOT":0},{"OBJECT_NAME":"ONEWEB-0315","OBJECT_ID":"2021-075AC","EPOCH":"2025-07-30T22:42:13.058208","MEAN_MOTION":13.12441598,"ECCENTRICITY":0.0001707,"INCLINATION":87.8854,"RA_OF_ASC_NODE":54.5069,"ARG_OF_PERICENTER":99.5968,"MEAN_ANOMALY":260.5353,"EPHEMERIS_TYPE":0,"CLASSIFICATION_TYPE":"U","NORAD_CAT_ID":49101,"ELEMENT_SET_NO":999,"REV_AT_EPOCH":19303,"BSTAR":0.00061922,"MEAN_MOTION_DOT":2.35e-6,"MEAN_MOTION_DDOT":0},{"OBJECT_NAME":"ONEWEB-0316","OBJECT_ID":"2021-075AD","EPOCH":"2025-07-30T19:43:31.376352","MEAN_MOTION":13.18686317,"ECCENTRICITY":0.0001797,"INCLINATION":87.9125,"RA_OF_ASC_NODE":39.3045,"ARG_OF_PERICENTER":96.1079,"MEAN_ANOMALY":264.0258,"EPHEMERIS_TYPE":0,"CLASSIFICATION_TYPE":"U","NORAD_CAT_ID":49102,"ELEMENT_SET_NO":999,"REV_AT_EPOCH":19485,"BSTAR":-3.7977e-5,"MEAN_MOTION_DOT":-2.0e-8,"MEAN_MOTION_DDOT":0},{"OBJECT_NAME":"ONEWEB-0317","OBJECT_ID":"2021-075AE","EPOCH":"2025-07-30T22:32:52.315296","MEAN_MOTION":13.12443076,"ECCENTRICITY":0.0001915,"INCLINATION":87.885,"RA_OF_ASC_NODE":54.5233,"ARG_OF_PERICENTER":60.9328,"MEAN_ANOMALY":299.1992,"EPHEMERIS_TYPE":0,"CLASSIFICATION_TYPE":"U","NORAD_CAT_ID":49103,"ELEMENT_SET_NO":999,"REV_AT_EPOCH":19305,"BSTAR":0.0011937,"MEAN_MOTION_DOT":4.42e-6,"MEAN_MOTION_DDOT":0},{"OBJECT_NAME":"ONEWEB-0329","OBJECT_ID":"2021-075AJ","EPOCH":"2025-07-30T21:30:05.378112","MEAN_MOTION":13.1764961,"ECCENTRICITY":0.0001527,"INCLINATION":87.9031,"RA_OF_ASC_NODE":69.8347,"ARG_OF_PERICENTER":88.3272,"MEAN_ANOMALY":271.8034,"EPHEMERIS_TYPE":0,"CLASSIFICATION_TYPE":"U","NORAD_CAT_ID":49107,"ELEMENT_SET_NO":999,"REV_AT_EPOCH":19127,"BSTAR":0.00012917,"MEAN_MOTION_DOT":6.3e-7,"MEAN_MOTION_DDOT":0},{"OBJECT_NAME":"ONEWEB-0292","OBJECT_ID":"2021-083A","EPOCH":"2025-07-30T22:11:29.487840","MEAN_MOTION":13.13469638,"ECCENTRICITY":0.0001768,"INCLINATION":87.8968,"RA_OF_ASC_NODE":24.0893,"ARG_OF_PERICENTER":97.7491,"MEAN_ANOMALY":262.3839,"EPHEMERIS_TYPE":0,"CLASSIFICATION_TYPE":"U","NORAD_CAT_ID":49186,"ELEMENT_SET_NO":999,"REV_AT_EPOCH":18875,"BSTAR":0.0008879,"MEAN_MOTION_DOT":3.37e-6,"MEAN_MOTION_DDOT":0},{"OBJECT_NAME":"ONEWEB-0306","OBJECT_ID":"2021-083C","EPOCH":"2025-07-31T00:47:32.069184","MEAN_MOTION":13.18684504,"ECCENTRICITY":0.0001853,"INCLINATION":87.9126,"RA_OF_ASC_NODE":39.2345,"ARG_OF_PERICENTER":82.9097,"MEAN_ANOMALY":277.2246,"EPHEMERIS_TYPE":0,"CLASSIFICATION_TYPE":"U","NORAD_CAT_ID":49188,"ELEMENT_SET_NO":999,"REV_AT_EPOCH":18897,"BSTAR":5.4148e-5,"MEAN_MOTION_DOT":3.4e-7,"MEAN_MOTION_DDOT":0},{"OBJECT_NAME":"ONEWEB-0307","OBJECT_ID":"2021-083D","EPOCH":"2025-07-30T23:52:40.255104","MEAN_MOTION":13.13471008,"ECCENTRICITY":0.0001623,"INCLINATION":87.8955,"RA_OF_ASC_NODE":24.0785,"ARG_OF_PERICENTER":81.7595,"MEAN_ANOMALY":278.3718,"EPHEMERIS_TYPE":0,"CLASSIFICATION_TYPE":"U","NORAD_CAT_ID":49189,"ELEMENT_SET_NO":999,"REV_AT_EPOCH":19005,"BSTAR":0.00060007,"MEAN_MOTION_DOT":2.32e-6,"MEAN_MOTION_DDOT":0},{"OBJECT_NAME":"ONEWEB-0320","OBJECT_ID":"2021-083E","EPOCH":"2025-07-30T21:18:30.919104","MEAN_MOTION":13.18686308,"ECCENTRICITY":0.0001763,"INCLINATION":87.9125,"RA_OF_ASC_NODE":39.2922,"ARG_OF_PERICENTER":89.8251,"MEAN_ANOMALY":270.3083,"EPHEMERIS_TYPE":0,"CLASSIFICATION_TYPE":"U","NORAD_CAT_ID":49190,"ELEMENT_SET_NO":999,"REV_AT_EPOCH":18763,"BSTAR":9.1154e-5,"MEAN_MOTION_DOT":4.9e-7,"MEAN_MOTION_DDOT":0}]
