ONEWEB-0311             
1 49097U 21075Y   25212.11358282  .00000078  00000+0  16837-3 0  9998
2 49097  87.9032  69.7617 0001521  94.8488 265.2817 13.17648151192343
ONEWEB-0312             
1 49098U 21075Z   25211.90097519 -.00000015  00000+0 -70636-4 0  9999
2 49098  87.9033  69.8356 0001371  83.6732 276.4556 13.17648760191290
ONEWEB-0313             
1 49099U 21075AA  25211.90588632  .00000012  00000+0 -32625-5 0  9994
2 49099  87.9029  69.8491 0001762  87.4803 272.6530 13.17650588191281
ONEWEB-0314             
1 49100U 21075AB  25212.10010051 -.00000050  00000+0 -16083-3 0  9996
2 49100  87.9040  69.7432 0001399  85.9528 274.1764 13.17648779192279
ONEWEB-0315             
1 49101U 21075AC  25211.94598447  .00000235  00000+0  61922-3 0  9993
2 49101  87.8854  54.5069 0001707  99.5968 260.5353 13.12441598193035
ONEWEB-0316             
1 49102U 21075AD  25211.82189093 -.00000002  00000+0 -37977-4 0  9992
2 49102  87.9125  39.3045 0001797  96.1079 264.0258 13.18686317194858
ONEWEB-0317             
1 49103U 21075AE  25211.93949439  .00000442  00000+0  11937-2 0  9995
2 49103  87.8850  54.5233 0001915  60.9328 299.1992 13.12443076193051
ONEWEB-0329             
1 49107U 21075AJ  25211.89589558  .00000063  00000+0  12917-3 0  9995
2 49107  87.9031  69.8347 0001527  88.3272 271.8034 13.17649610191276
ONEWEB-0292             
1 49186U 21083A   25211.92464685  .00000337  00000+0  88790-3 0  9994
2 49186  87.8968  24.0893 0001768  97.7491 262.3839 13.13469638188757
ONEWEB-0306             
1 49188U 21083C   25212.03301006  .00000034  00000+0  54148-4 0  9991
2 49188  87.9126  39.2345 0001853  82.9097 277.2246 13.18684504188976
ONEWEB-0307             
1 49189U 21083D   25211.99491036  .00000232  00000+0  60007-3 0  9999
2 49189  87.8955  24.0785 0001623  81.7595 278.3718 13.13471008190057
ONEWEB-0320             
1 49190U 21083E   25211.88785786  .00000049  00000+0  91154-4 0  9991
2 49190  87.9125  39.2922 0001763  89.8251 270.3083 13.18686308187636
